     3.04           N: GNSS NAV DATA    E: GALILEO          RINEX VERSION / TYPE
cnvtToRINEX 3.14.0  convertToRINEX OPR  20250615 162936 UTC PGM / RUN BY / DATE 
----------------------------------------------------------- COMMENT             
GAL    0.1213D+03  0.2266D+00  0.9094D-02                   IONOSPHERIC CORR    
GAUT  0.9313225746D-09-0.888178420D-15      0 2371          TIME SYSTEM CORR    
GAGP  0.2881279215D-08 0.532907052D-14      0 2371          TIME SYSTEM CORR    
                                                            END OF HEADER       
E10 2025 06 15 08 00 00-0.716676586308D-03-0.260058641288D-11 0.000000000000D+00
     0.480000000000D+02 0.130218750000D+03 0.243724437815D-08-0.391755898914D+00
     0.610575079918D-05 0.311727984808D-03 0.400096178055D-05 0.544060727882D+04
     0.288000000000D+05-0.409781932831D-07 0.153796094910D+01-0.279396772385D-07
     0.999089143936D+00 0.276468750000D+03 0.189176493044D+01-0.543986944954D-08
     0.578595529398D-10 0.513000000000D+03 0.237100000000D+04 0.000000000000D+00
     0.312000000000D+01 0.000000000000D+00-0.116415321827D-08-0.232830643654D-09
     0.294850000000D+05 0.000000000000D+00 0.000000000000D+00 0.000000000000D+00
E12 2025 06 15 08 00 00-0.219566072337D-02-0.184556370186D-09 0.000000000000D+00
     0.480000000000D+02 0.123750000000D+03 0.247438878251D-08 0.111910023275D+01
     0.568851828575D-05 0.419976771809D-03 0.392086803913D-05 0.544060897827D+04
     0.288000000000D+05-0.149011611938D-07 0.154020663661D+01-0.298023223877D-07
     0.996171014430D+00 0.277562500000D+03 0.748369822573D+00-0.547058501468D-08
     0.385730352932D-10 0.513000000000D+03 0.237100000000D+04 0.000000000000D+00
     0.312000000000D+01 0.000000000000D+00-0.118743628263D-07-0.114087015390D-07
     0.294850000000D+05 0.000000000000D+00 0.000000000000D+00 0.000000000000D+00
E25 2025 06 15 08 00 00 0.181108480319D-04 0.284217094304D-12 0.000000000000D+00
     0.480000000000D+02-0.543750000000D+01 0.359550691015D-08-0.226159383930D+01
    -0.178813934326D-06 0.184676027857D-03 0.594370067120D-05 0.544059577179D+04
     0.288000000000D+05-0.335276126862D-07-0.555764396721D+00 0.223517417908D-07
     0.963348378755D+00 0.214843750000D+03-0.159412407700D+01-0.557773233494D-08
    -0.306798493674D-09 0.513000000000D+03 0.237100000000D+04 0.000000000000D+00
     0.312000000000D+01 0.000000000000D+00 0.256113708019D-08 0.302679836750D-08
     0.294850000000D+05 0.000000000000D+00 0.000000000000D+00 0.000000000000D+00
E10 2025 06 15 08 00 00-0.716678041499D-03-0.260058641288D-11 0.000000000000D+00
     0.480000000000D+02 0.130218750000D+03 0.243724437815D-08-0.391755898914D+00
     0.610575079918D-05 0.311727984808D-03 0.400096178055D-05 0.544060727882D+04
     0.288000000000D+05-0.409781932831D-07 0.153796094910D+01-0.279396772385D-07
     0.999089143936D+00 0.276468750000D+03 0.189176493044D+01-0.543986944954D-08
     0.578595529398D-10 0.258000000000D+03 0.237100000000D+04 0.000000000000D+00
     0.312000000000D+01 0.000000000000D+00-0.116415321827D-08 0.000000000000D+00
     0.295200000000D+05 0.000000000000D+00 0.000000000000D+00 0.000000000000D+00
E12 2025 06 15 08 00 00-0.219566159649D-02-0.184556370186D-09 0.000000000000D+00
     0.480000000000D+02 0.123750000000D+03 0.247438878251D-08 0.111910023275D+01
     0.568851828575D-05 0.419976771809D-03 0.392086803913D-05 0.544060897827D+04
     0.288000000000D+05-0.149011611938D-07 0.154020663661D+01-0.298023223877D-07
     0.996171014430D+00 0.277562500000D+03 0.748369822573D+00-0.547058501468D-08
     0.385730352932D-10 0.258000000000D+03 0.237100000000D+04 0.000000000000D+00
     0.312000000000D+01 0.000000000000D+00-0.118743628263D-07 0.000000000000D+00
     0.295200000000D+05 0.000000000000D+00 0.000000000000D+00 0.000000000000D+00
E25 2025 06 15 08 00 00 0.181096838787D-04 0.284217094304D-12 0.000000000000D+00
     0.480000000000D+02-0.543750000000D+01 0.359550691015D-08-0.226159383930D+01
    -0.178813934326D-06 0.184676027857D-03 0.594370067120D-05 0.544059577179D+04
     0.288000000000D+05-0.335276126862D-07-0.555764396721D+00 0.223517417908D-07
     0.963348378755D+00 0.214843750000D+03-0.159412407700D+01-0.557773233494D-08
    -0.306798493674D-09 0.258000000000D+03 0.237100000000D+04 0.000000000000D+00
     0.312000000000D+01 0.000000000000D+00 0.256113708019D-08 0.000000000000D+00
     0.295200000000D+05 0.000000000000D+00 0.000000000000D+00 0.000000000000D+00
E36 2025 06 15 08 00 00-0.409256957937D-03-0.537170308235D-11 0.000000000000D+00
     0.480000000000D+02 0.145625000000D+03 0.258082178730D-08-0.254269340779D+00
     0.683590769768D-05 0.189344747923D-03 0.313855707645D-05 0.544060511589D+04
     0.288000000000D+05 0.428408384323D-07 0.153986916335D+01 0.838190317154D-07
     0.999257382441D+00 0.289000000000D+03 0.573343102704D+00-0.550880089224D-08
     0.126790995640D-09 0.258000000000D+03 0.237100000000D+04 0.000000000000D+00
     0.312000000000D+01 0.000000000000D+00 0.442378222942D-08 0.000000000000D+00
     0.295200000000D+05 0.000000000000D+00 0.000000000000D+00 0.000000000000D+00
